{
  "type": "FeatureCollection",
  "features": [
    {
      "type": "Feature",
      "properties": {
        "norad_id": 41581,
        "name": "INTELSAT 31 (IS-31)",
        "group": "intelsat",
        "lat": -0.02148492013466428,
        "lon": -140.37348078723682,
        "alt_km": 35779.96281741594,
        "timestamp": "2025-12-23T14:49:08.998009+00:00",
        "meta_object_name": "INTELSAT 31 (IS-31)",
        "meta_object_id": "2016-035A",
        "meta_epoch": "2025-12-23T04:04:06.858048",
        "meta_mean_motion": 1.00267678,
        "meta_eccentricity": 0.00017894,
        "meta_inclination": 0.03,
        "meta_ra_of_asc_node": 262.009,
        "meta_arg_of_pericenter": 303.3765,
        "meta_mean_anomaly": 212.5489,
        "meta_ephemeris_type": 0,
        "meta_classification_type": "U",
        "meta_norad_cat_id": 41581,
        "meta_element_set_no": 999,
        "meta_rev_at_epoch": 3491,
        "meta_bstar": 0,
        "meta_mean_motion_dot": -1.29e-06,
        "meta_mean_motion_ddot": 0,
        "tle_line1": "1 41581U 16035A   25357.16952382 -.00000129  00000+0  00000+0 0  9993",
        "tle_line2": "2 41581   0.0300 262.0090 0001789 303.3765 212.5489  1.00267678 34910"
      },
      "geometry": {
        "type": "Point",
        "coordinates": [
          -140.37348078723682,
          -0.02148492013466428
        ]
      }
    },
    {
      "type": "Feature",
      "properties": {
        "norad_id": 41747,
        "name": "INTELSAT 36 (IS-36)",
        "group": "intelsat",
        "lat": 0.011332600409262912,
        "lon": 23.19014596643673,
        "alt_km": 35783.84504720154,
        "timestamp": "2025-12-23T14:49:08.998022+00:00",
        "meta_object_name": "INTELSAT 36 (IS-36)",
        "meta_object_id": "2016-053A",
        "meta_epoch": "2025-12-22T13:29:30.047712",
        "meta_mean_motion": 1.0027117,
        "meta_eccentricity": 0.00010206,
        "meta_inclination": 0.0105,
        "meta_ra_of_asc_node": 0.216,
        "meta_arg_of_pericenter": 326.742,
        "meta_mean_anomaly": 35.2784,
        "meta_ephemeris_type": 0,
        "meta_classification_type": "U",
        "meta_norad_cat_id": 41747,
        "meta_element_set_no": 999,
        "meta_rev_at_epoch": 3417,
        "meta_bstar": 0,
        "meta_mean_motion_dot": -3e-08,
        "meta_mean_motion_ddot": 0,
        "tle_line1": "1 41747U 16053A   25356.56215333 -.00000003  00000+0  00000+0 0  9999",
        "tle_line2": "2 41747   0.0105   0.2160 0001020 326.7420  35.2784  1.00271170 34170"
      },
      "geometry": {
        "type": "Point",
        "coordinates": [
          23.19014596643673,
          0.011332600409262912
        ]
      }
    },
    {
      "type": "Feature",
      "properties": {
        "norad_id": 41945,
        "name": "INTELSAT 32E (IS-32E)",
        "group": "intelsat",
        "lat": -0.026307489813799167,
        "lon": -88.4891091012861,
        "alt_km": 35787.592481330794,
        "timestamp": "2025-12-23T14:49:08.998034+00:00",
        "meta_object_name": "INTELSAT 32E (IS-32E)",
        "meta_object_id": "2017-007B",
        "meta_epoch": "2025-12-23T04:21:59.220288",
        "meta_mean_motion": 1.00271191,
        "meta_eccentricity": 5.089e-05,
        "meta_inclination": 0.0236,
        "meta_ra_of_asc_node": 68.7803,
        "meta_arg_of_pericenter": 329.6845,
        "meta_mean_anomaly": 75.8383,
        "meta_ephemeris_type": 0,
        "meta_classification_type": "U",
        "meta_norad_cat_id": 41945,
        "meta_element_set_no": 999,
        "meta_rev_at_epoch": 3246,
        "meta_bstar": 0,
        "meta_mean_motion_dot": -2.48e-06,
        "meta_mean_motion_ddot": 0,
        "tle_line1": "1 41945U 17007B   25357.18193542 -.00000248  00000+0  00000+0 0  9996",
        "tle_line2": "2 41945   0.0236  68.7803 0000508 329.6845  75.8383  1.00271191 32469"
      },
      "geometry": {
        "type": "Point",
        "coordinates": [
          -88.4891091012861,
          -0.026307489813799167
        ]
      }
    },
    {
      "type": "Feature",
      "properties": {
        "norad_id": 42818,
        "name": "INTELSAT 35E (IS-35E)",
        "group": "intelsat",
        "lat": -0.046499837194085125,
        "lon": -79.83161825091429,
        "alt_km": 35779.076817092544,
        "timestamp": "2025-12-23T14:49:08.998047+00:00",
        "meta_object_name": "INTELSAT 35E (IS-35E)",
        "meta_object_id": "2017-041A",
        "meta_epoch": "2025-12-22T11:17:18.904416",
        "meta_mean_motion": 1.00267679,
        "meta_eccentricity": 0.00019503,
        "meta_inclination": 0.0219,
        "meta_ra_of_asc_node": 17.0294,
        "meta_arg_of_pericenter": 262.6673,
        "meta_mean_anomaly": 306.4061,
        "meta_ephemeris_type": 0,
        "meta_classification_type": "U",
        "meta_norad_cat_id": 42818,
        "meta_element_set_no": 999,
        "meta_rev_at_epoch": 3104,
        "meta_bstar": 0,
        "meta_mean_motion_dot": 0,
        "meta_mean_motion_ddot": 0,
        "tle_line1": "1 42818U 17041A   25356.47035769  .00000000  00000+0  00000+0 0  9996",
        "tle_line2": "2 42818   0.0219  17.0294 0001950 262.6673 306.4061  1.00267679 31043"
      },
      "geometry": {
        "type": "Point",
        "coordinates": [
          -79.83161825091429,
          -0.046499837194085125
        ]
      }
    },
    {
      "type": "Feature",
      "properties": {
        "norad_id": 42950,
        "name": "INTELSAT 37E (IS-37E)",
        "group": "intelsat",
        "lat": -0.04281860531181102,
        "lon": -63.29748026013888,
        "alt_km": 35776.10640263504,
        "timestamp": "2025-12-23T14:49:08.998060+00:00",
        "meta_object_name": "INTELSAT 37E (IS-37E)",
        "meta_object_id": "2017-059A",
        "meta_epoch": "2025-12-23T02:46:30.914976",
        "meta_mean_motion": 1.00270162,
        "meta_eccentricity": 0.00029864,
        "meta_inclination": 0.0204,
        "meta_ra_of_asc_node": 10.7633,
        "meta_arg_of_pericenter": 251.5591,
        "meta_mean_anomaly": 213.217,
        "meta_ephemeris_type": 0,
        "meta_classification_type": "U",
        "meta_norad_cat_id": 42950,
        "meta_element_set_no": 999,
        "meta_rev_at_epoch": 3030,
        "meta_bstar": 0,
        "meta_mean_motion_dot": 0,
        "meta_mean_motion_ddot": 0,
        "tle_line1": "1 42950U 17059A   25357.11563559  .00000000  00000+0  00000+0 0  9997",
        "tle_line2": "2 42950   0.0204  10.7633 0002986 251.5591 213.2170  1.00270162 30302"
      },
      "geometry": {
        "type": "Point",
        "coordinates": [
          -63.29748026013888,
          -0.04281860531181102
        ]
      }
    },
    {
      "type": "Feature",
      "properties": {
        "norad_id": 43632,
        "name": "AZERSPACE 2 (IS-38)",
        "group": "intelsat",
        "lat": -0.010097186553418762,
        "lon": -0.1924880287298716,
        "alt_km": 35786.19443570935,
        "timestamp": "2025-12-23T14:49:08.998072+00:00",
        "meta_object_name": "AZERSPACE 2 (IS-38)",
        "meta_object_id": "2018-074A",
        "meta_epoch": "2025-12-22T11:40:01.728768",
        "meta_mean_motion": 1.00269966,
        "meta_eccentricity": 0.00012119,
        "meta_inclination": 0.0009,
        "meta_ra_of_asc_node": 54.2649,
        "meta_arg_of_pericenter": 218.3873,
        "meta_mean_anomaly": 38.7587,
        "meta_ephemeris_type": 0,
        "meta_classification_type": "U",
        "meta_norad_cat_id": 43632,
        "meta_element_set_no": 999,
        "meta_rev_at_epoch": 2667,
        "meta_bstar": 0,
        "meta_mean_motion_dot": 1.58e-06,
        "meta_mean_motion_ddot": 0,
        "tle_line1": "1 43632U 18074A   25356.48613112  .00000158  00000+0  00000+0 0  9997",
        "tle_line2": "2 43632   0.0009  54.2649 0001211 218.3873  38.7587  1.00269966 26674"
      },
      "geometry": {
        "type": "Point",
        "coordinates": [
          -0.1924880287298716,
          -0.010097186553418762
        ]
      }
    },
    {
      "type": "Feature",
      "properties": {
        "norad_id": 43633,
        "name": "HORIZONS-3E",
        "group": "intelsat",
        "lat": -0.010982580276400682,
        "lon": 123.67152316677522,
        "alt_km": 35788.98011579093,
        "timestamp": "2025-12-23T14:49:08.998085+00:00",
        "meta_object_name": "HORIZONS-3E",
        "meta_object_id": "2018-074B",
        "meta_epoch": "2025-12-23T03:39:48.312000",
        "meta_mean_motion": 1.00269863,
        "meta_eccentricity": 5.63e-05,
        "meta_inclination": 0.0111,
        "meta_ra_of_asc_node": 213.5125,
        "meta_arg_of_pericenter": 95.1186,
        "meta_mean_anomaly": 7.2553,
        "meta_ephemeris_type": 0,
        "meta_classification_type": "U",
        "meta_norad_cat_id": 43633,
        "meta_element_set_no": 999,
        "meta_rev_at_epoch": 2657,
        "meta_bstar": 0,
        "meta_mean_motion_dot": 0,
        "meta_mean_motion_ddot": 0,
        "tle_line1": "1 43633U 18074B   25357.15264250  .00000000  00000+0  00000+0 0  9994",
        "tle_line2": "2 43633   0.0111 213.5125 0000563  95.1186   7.2553  1.00269863 26574"
      },
      "geometry": {
        "type": "Point",
        "coordinates": [
          123.67152316677522,
          -0.010982580276400682
        ]
      }
    }
  ]
}